NORAD_CAT_ID,OBJECT_NAME,OBJECT_TYPE,EPOCH,MEAN_MOTION,ECCENTRICITY,INCLINATION,RA_OF_ASC_NODE,ARG_OF_PERICENTER,MEAN_ANOMALY,BSTAR,MEAN_MOTION_DOT,MEAN_MOTION_DDOT,TLE_LINE0,TLE_LINE1,TLE_LINE2,SEMIMAJOR_AXIS,PERIOD,APOGEE,PERIGEE,DECAYED
52685.0,STARLINK-4029,PAYLOAD,2023-05-01 10:44:51,15.08837829,0.0001147,53.2146,147.4163,98.0004,262.1119,6.8171e-05,7.97e-06,0.0,0 STARLINK-4029,1 52685U 22053AF  23121.44781923  .00000797  00000-0  68171-4 0  9995,2 52685  53.2146 147.4163 0001147  98.0004 262.1119 15.08837829 53628,6917.887,95.438,540.546,538.959,0.0
52685.0,STARLINK-4029,PAYLOAD,2023-05-01 13:55:37,15.08841064,0.0001077,53.2148,146.8208,97.7448,262.3667,0.00010883,1.445e-05,0.0,0 STARLINK-4029,1 52685U 22053AF  23121.58029878  .00001445  00000-0  10883-3 0  9991,2 52685  53.2148 146.8208 0001077  97.7448 262.3667 15.08841064 53270,6917.877,95.437,540.487,538.997,0.0
52685.0,STARLINK-4029,PAYLOAD,2023-05-02 10:35:38,15.08845527,0.0001151,53.2145,142.9548,90.2906,269.8218,0.00019488,2.815e-05,0.0,0 STARLINK-4029,1 52685U 22053AF  23122.44141670  .00002815  00000-0  19488-3 0  9994,2 52685  53.2145 142.9548 0001151  90.2906 269.8218 15.08845527 53778,6917.863,95.437,540.525,538.932,0.0
52685.0,STARLINK-4029,PAYLOAD,2023-05-03 05:40:16,15.08836515,0.0001239,53.214,139.3869,81.4061,278.7071,1.2945e-05,-8.2e-07,0.0,0 STARLINK-4029,1 52685U 22053AF  23123.23630286 -.00000082  00000-0  12945-4 0  9995,2 52685  53.2140 139.3869 0001239  81.4061 278.7071 15.08836515 53526,6917.891,95.438,540.613,538.899,0.0
52685.0,STARLINK-4029,PAYLOAD,2023-05-03 10:26:26,15.08838843,0.0001183,53.2153,138.4947,84.2727,275.84,5.0018e-05,5.08e-06,0.0,0 STARLINK-4029,1 52685U 22053AF  23123.43502390  .00000508  00000-0  50018-4 0  9996,2 52685  53.2153 138.4947 0001183  84.2727 275.8400 15.08838843 53929,6917.884,95.438,540.567,538.931,0.0
52685.0,STARLINK-4029,PAYLOAD,2023-05-04 10:17:12,15.08841709,0.0001197,53.2155,134.0341,85.1163,274.9965,3.7065e-05,3.02e-06,0.0,0 STARLINK-4029,1 52685U 22053AF  23124.42862236  .00000302  00000-0  37065-4 0  9993,2 52685  53.2155 134.0341 0001197  85.1163 274.9965 15.08841709 53707,6917.875,95.437,540.568,538.912,0.0
52685.0,STARLINK-4029,PAYLOAD,2023-05-05 06:57:13,15.08847839,0.0001101,53.2154,130.1675,82.6361,277.4756,0.00015916,2.247e-05,0.0,0 STARLINK-4029,1 52685U 22053AF  23125.28973470  .00002247  00000-0  15916-3 0  9991,2 52685  53.2154 130.1675 0001101  82.6361 277.4756 15.08847839 54202,6917.856,95.437,540.483,538.96,0.0
52685.0,STARLINK-4029,PAYLOAD,2023-05-05 22:51:05,15.08839404,0.0001064,53.2151,127.1935,82.962,277.1493,6.2476e-05,7.07e-06,0.0,0 STARLINK-4029,1 52685U 22053AF  23125.95214252  .00000707  00000-0  62476-4 0  9994,2 52685  53.2151 127.1935 0001064  82.9620 277.1493 15.08839404 53936,6917.882,95.438,540.483,539.011,0.0
52685.0,STARLINK-4029,PAYLOAD,2023-05-06 09:58:47,15.08837729,0.0001082,53.2151,125.1112,84.9432,275.1683,3.6065e-05,2.86e-06,0.0,0 STARLINK-4029,1 52685U 22053AF  23126.41582483  .00000286  00000-0  36065-4 0  9997,2 52685  53.2151 125.1112 0001082  84.9432 275.1683 15.08837729 54370,6917.887,95.438,540.501,539.004,0.0
52685.0,STARLINK-4029,PAYLOAD,2023-05-07 00:17:15,15.08844352,0.000109,53.2153,122.4351,85.4,274.7116,2.2671e-05,7.3e-07,0.0,0 STARLINK-4029,1 52685U 22053AF  23127.01198042  .00000073  00000-0  22671-4 0  9990,2 52685  53.2153 122.4351 0001090  85.4000 274.7116 15.08844352 54098,6917.867,95.437,540.486,538.978,0.0
52685.0,STARLINK-4029,PAYLOAD,2023-05-07 06:38:47,15.08847318,0.0001102,53.2153,121.246,86.3391,273.7727,4.7132e-05,4.63e-06,0.0,0 STARLINK-4029,1 52685U 22053AF  23127.27693724  .00000463  00000-0  47132-4 0  9997,2 52685  53.2153 121.2460 0001102  86.3391 273.7727 15.08847318 54501,6917.858,95.437,540.485,538.961,0.0
52685.0,STARLINK-4029,PAYLOAD,2023-05-07 16:11:06,15.08838059,0.0001102,53.2151,119.4619,84.5799,275.5319,2.0442e-05,3.8e-07,0.0,0 STARLINK-4029,1 52685U 22053AF  23127.67438360  .00000038  00000-0  20442-4 0  9997,2 52685  53.2151 119.4619 0001102  84.5799 275.5319 15.08838059 54190,6917.886,95.438,540.514,538.989,0.0
52685.0,STARLINK-4029,PAYLOAD,2023-05-08 04:54:12,15.08829084,0.0001085,53.2151,117.0836,89.553,270.5586,2.9492e-05,1.81e-06,0.0,0 STARLINK-4029,1 52685U 22053AF  23128.20431142  .00000181  00000-0  29492-4 0  9991,2 52685  53.2151 117.0836 0001085  89.5530 270.5586 15.08829084 54271,6917.914,95.438,540.529,539.028,0.0
52685.0,STARLINK-4029,PAYLOAD,2023-05-08 19:12:40,15.08839952,0.000103,53.215,114.4072,91.5599,268.5511,9.9627e-05,1.298e-05,0.0,0 STARLINK-4029,1 52685U 22053AF  23128.80046445  .00001298  00000-0  99627-4 0  9992,2 52685  53.2150 114.4072 0001030  91.5599 268.5511 15.08839952 54732,6917.881,95.438,540.458,539.033,0.0
52685.0,STARLINK-4029,PAYLOAD,2023-05-09 06:20:21,15.0884691,0.000105,53.2153,112.3263,95.2593,264.8519,0.0001023,1.341e-05,0.0,0 STARLINK-4029,1 52685U 22053AF  23129.26413962  .00001341  00000-0  10230-3 0  9996,2 52685  53.2153 112.3263 0001050  95.2593 264.8519 15.08846910 54808,6917.859,95.437,540.451,538.998,0.0
52685.0,STARLINK-4029,PAYLOAD,2023-05-10 06:11:09,15.08839117,9.75e-05,53.2154,107.8643,88.9207,271.1897,0.00014007,1.942e-05,0.0,0 STARLINK-4029,1 52685U 22053AF  23130.25774651  .00001942  00000-0  14007-3 0  9995,2 52685  53.2154 107.8643 0000975  88.9207 271.1897 15.08839117 54953,6917.883,95.438,540.423,539.074,0.0
52685.0,STARLINK-4029,PAYLOAD,2023-05-10 15:43:28,15.08840891,9.6e-05,53.2155,106.0805,91.1856,268.9246,0.00010221,1.339e-05,0.0,0 STARLINK-4029,1 52685U 22053AF  23130.65518654  .00001339  00000-0  10221-3 0  9992,2 52685  53.2155 106.0805 0000960  91.1856 268.9246 15.08840891 55016,6917.878,95.437,540.407,539.079,0.0
52685.0,STARLINK-4029,PAYLOAD,2023-05-11 04:26:33,15.08844804,0.0001033,53.2156,103.7018,89.0765,271.0346,4.352e-05,4.05e-06,0.0,0 STARLINK-4029,1 52685U 22053AF  23131.18510492  .00000405  00000-0  43520-4 0  9995,2 52685  53.2156 103.7018 0001033  89.0765 271.0346 15.08844804 54725,6917.866,95.437,540.445,539.016,0.0
52685.0,STARLINK-4029,PAYLOAD,2023-05-11 15:34:15,15.08841693,9.56e-05,53.2153,101.6195,93.7222,266.3879,-9.6795e-06,-4.42e-06,0.0,0 STARLINK-4029,1 52685U 22053AF  23131.64878730 -.00000442  00000-0 -96795-5 0  9994,2 52685  53.2153 101.6195 0000956  93.7222 266.3879 15.08841693 55168,6917.875,95.437,540.402,539.079,0.0
52685.0,STARLINK-4029,PAYLOAD,2023-05-12 04:17:21,15.08831027,0.0001059,53.2149,99.2412,88.7232,271.3881,-2.9117e-06,-3.34e-06,0.0,0 STARLINK-4029,1 52685U 22053AF  23132.17871689 -.00000334  00000-0 -29117-5 0  9993,2 52685  53.2149  99.2412 0001059  88.7232 271.3881 15.08831027 54873,6917.908,95.438,540.505,539.04,0.0
52685.0,STARLINK-4029,PAYLOAD,2023-05-13 04:08:06,15.08854609,0.0001173,53.2163,94.7805,91.1032,269.0094,0.00011743,1.582e-05,0.0,0 STARLINK-4029,1 52685U 22053AF  23133.17229973  .00001582  00000-0  11743-3 0  9995,2 52685  53.2163  94.7805 0001173  91.1032 269.0094 15.08854609 55027,6917.836,95.437,540.512,538.889,0.0
52685.0,STARLINK-4029,PAYLOAD,2023-05-14 03:58:55,15.08837225,9.76e-05,53.2163,90.3183,91.1923,268.9181,0.00010823,1.435e-05,0.0,0 STARLINK-4029,1 52685U 22053AF  23134.16591476  .00001435  00000-0  10823-3 0  9990,2 52685  53.2163  90.3183 0000976  91.1923 268.9181 15.08837225 55173,6917.889,95.438,540.429,539.079,0.0
52685.0,STARLINK-4029,PAYLOAD,2023-05-14 21:28:09,15.08841882,0.0001011,53.216,87.0503,99.1054,261.0053,-5.7849e-05,-1.208e-05,0.0,0 STARLINK-4029,1 52685U 22053AF  23134.89455213 -.00001208  00000-0 -57849-4 0  9998,2 52685  53.2160  87.0503 0001011  99.1054 261.0053 15.08841882 55652,6917.875,95.437,540.439,539.04,0.0
52685.0,STARLINK-4029,PAYLOAD,2023-05-15 03:49:41,15.08846214,0.0001038,53.2159,85.8619,101.6733,258.4376,1.7756e-05,-5e-08,0.0,0 STARLINK-4029,1 52685U 22053AF  23135.15950951 -.00000005  00000-0  17756-4 0  9993,2 52685  53.2159  85.8619 0001038 101.6733 258.4376 15.08846214 55692,6917.861,95.437,540.444,539.008,0.0
52685.0,STARLINK-4029,PAYLOAD,2023-05-15 13:22:00,15.08843652,0.000105,53.2161,84.0784,104.0623,256.0486,-5.6478e-06,-3.78e-06,0.0,0 STARLINK-4029,1 52685U 22053AF  23135.55695026 -.00000378  00000-0 -56478-5 0  9995,2 52685  53.2161  84.0784 0001050 104.0623 256.0486 15.08843652 55383,6917.869,95.437,540.461,539.008,0.0
52685.0,STARLINK-4029,PAYLOAD,2023-05-16 03:40:29,15.08834025,0.000121,53.218,81.4038,114.1552,245.9566,9.2921e-05,1.191e-05,0.0,0 STARLINK-4029,1 52685U 22053AF  23136.15312024  .00001191  00000-0  92921-4 0  9990,2 52685  53.2180  81.4038 0001210 114.1552 245.9566 15.08834025 55478,6917.899,95.438,540.601,538.927,0.0
52685.0,STARLINK-4029,PAYLOAD,2023-05-16 06:51:15,15.0883521,0.000118,53.2181,80.8038,88.8965,271.2162,8.1404e-05,1.008e-05,0.0,0 STARLINK-4029,1 52685U 22053AF  23136.28560057  .00001008  00000-0  81404-4 0  9996,2 52685  53.2181  80.8038 0001180  88.8965 271.2162 15.08835210 55867,6917.895,95.438,540.576,538.944,0.0
52685.0,STARLINK-4029,PAYLOAD,2023-05-17 00:20:29,15.0884393,0.0001284,53.2184,77.5342,103.7913,256.3222,7.6397e-05,9.28e-06,0.0,0 STARLINK-4029,1 52685U 22053AF  23137.01423515  .00000928  00000-0  76397-4 0  9990,2 52685  53.2184  77.5342 0001284 103.7913 256.3222 15.08843930 55607,6917.868,95.437,540.622,538.845,0.0
52685.0,STARLINK-4029,PAYLOAD,2023-05-17 05:06:38,15.08848791,0.0001049,53.2169,76.6417,90.9903,269.1209,0.00012222,1.658e-05,0.0,0 STARLINK-4029,1 52685U 22053AF  23137.21295039  .00001658  00000-0  12222-3 0  9997,2 52685  53.2169  76.6417 0001049  90.9903 269.1209 15.08848791 56000,6917.854,95.437,540.444,538.993,0.0
52685.0,STARLINK-4029,PAYLOAD,2023-05-18 01:46:40,15.08834122,0.0001233,53.2182,72.773,91.2316,268.8817,5.4713e-05,5.83e-06,0.0,0 STARLINK-4029,1 52685U 22053AF  23138.07408338  .00000583  00000-0  54713-4 0  9998,2 52685  53.2182  72.7730 0001233  91.2316 268.8817 15.08834122 55763,6917.898,95.438,540.616,538.91,0.0
